{"fetched_at":"2026-07-20T18:28:56.744Z","source":"https://celestrak.org/NORAD/elements/gp.php?GROUP=planet&FORMAT=JSON","constellation":"superdove","records":[{"OBJECT_NAME":"FLOCK 4H-16","OBJECT_ID":"2025-276BF","EPOCH":"2026-07-20T03:20:19.437504","CLASSIFICATION_TYPE":"U","MEAN_MOTION":15.20185329,"ECCENTRICITY":0.00031051,"INCLINATION":97.4219,"RA_OF_ASC_NODE":274.199,"ARG_OF_PERICENTER":230.5473,"MEAN_ANOMALY":129.5487,"EPHEMERIS_TYPE":0,"NORAD_CAT_ID":66719,"ELEMENT_SET_NO":999,"REV_AT_EPOCH":3542,"BSTAR":0.00017364265,"MEAN_MOTION_DOT":0.00003692,"MEAN_MOTION_DDOT":0},{"OBJECT_NAME":"FLOCK 4H-18","OBJECT_ID":"2025-276BH","EPOCH":"2026-07-20T03:29:28.608000","CLASSIFICATION_TYPE":"U","MEAN_MOTION":15.20128277,"ECCENTRICITY":0.00022418,"INCLINATION":97.4161,"RA_OF_ASC_NODE":274.0148,"ARG_OF_PERICENTER":261.5335,"MEAN_ANOMALY":98.5646,"EPHEMERIS_TYPE":0,"NORAD_CAT_ID":66721,"ELEMENT_SET_NO":999,"REV_AT_EPOCH":3542,"BSTAR":0.00018623011,"MEAN_MOTION_DOT":0.00003958,"MEAN_MOTION_DDOT":0},{"OBJECT_NAME":"FLOCK 4H-19","OBJECT_ID":"2025-276BJ","EPOCH":"2026-07-20T03:22:51.432384","CLASSIFICATION_TYPE":"U","MEAN_MOTION":15.21314119,"ECCENTRICITY":0.0002724,"INCLINATION":97.4162,"RA_OF_ASC_NODE":274.4816,"ARG_OF_PERICENTER":140.8016,"MEAN_ANOMALY":219.3418,"EPHEMERIS_TYPE":0,"NORAD_CAT_ID":66722,"ELEMENT_SET_NO":999,"REV_AT_EPOCH":3474,"BSTAR":0.00013874157,"MEAN_MOTION_DOT":0.00003035,"MEAN_MOTION_DDOT":0},{"OBJECT_NAME":"FLOCK 4H-20","OBJECT_ID":"2025-276BK","EPOCH":"2026-07-20T03:25:10.992576","CLASSIFICATION_TYPE":"U","MEAN_MOTION":15.21479738,"ECCENTRICITY":0.00033495,"INCLINATION":97.42,"RA_OF_ASC_NODE":274.5929,"ARG_OF_PERICENTER":157.8477,"MEAN_ANOMALY":202.2905,"EPHEMERIS_TYPE":0,"NORAD_CAT_ID":66723,"ELEMENT_SET_NO":999,"REV_AT_EPOCH":3470,"BSTAR":0.00015407115,"MEAN_MOTION_DOT":0.00003395,"MEAN_MOTION_DDOT":0},{"OBJECT_NAME":"FLOCK 4H-21","OBJECT_ID":"2025-276BL","EPOCH":"2026-07-20T02:37:33.167424","CLASSIFICATION_TYPE":"U","MEAN_MOTION":15.21063204,"ECCENTRICITY":0.00031605,"INCLINATION":97.4164,"RA_OF_ASC_NODE":274.3787,"ARG_OF_PERICENTER":156.4336,"MEAN_ANOMALY":203.7045,"EPHEMERIS_TYPE":0,"NORAD_CAT_ID":66724,"ELEMENT_SET_NO":999,"REV_AT_EPOCH":3469,"BSTAR":0.00015463067,"MEAN_MOTION_DOT":0.00003366,"MEAN_MOTION_DDOT":0},{"OBJECT_NAME":"FLOCK 4H-22","OBJECT_ID":"2025-276BM","EPOCH":"2026-07-20T03:44:03.729408","CLASSIFICATION_TYPE":"U","MEAN_MOTION":15.20560923,"ECCENTRICITY":0.0001077,"INCLINATION":97.4155,"RA_OF_ASC_NODE":274.1308,"ARG_OF_PERICENTER":250.6571,"MEAN_ANOMALY":109.4548,"EPHEMERIS_TYPE":0,"NORAD_CAT_ID":66725,"ELEMENT_SET_NO":999,"REV_AT_EPOCH":3543,"BSTAR":0.00018882814,"MEAN_MOTION_DOT":0.00004065,"MEAN_MOTION_DDOT":0},{"OBJECT_NAME":"FLOCK 4H-23","OBJECT_ID":"2025-276BN","EPOCH":"2026-07-20T03:28:37.505856","CLASSIFICATION_TYPE":"U","MEAN_MOTION":15.20105973,"ECCENTRICITY":0.00033958,"INCLINATION":97.4224,"RA_OF_ASC_NODE":274.2059,"ARG_OF_PERICENTER":220.2478,"MEAN_ANOMALY":139.8506,"EPHEMERIS_TYPE":0,"NORAD_CAT_ID":66726,"ELEMENT_SET_NO":999,"REV_AT_EPOCH":3542,"BSTAR":0.00018022242,"MEAN_MOTION_DOT":0.00003825,"MEAN_MOTION_DDOT":0},{"OBJECT_NAME":"FLOCK 4H-24","OBJECT_ID":"2025-276BP","EPOCH":"2026-07-20T03:06:12.088512","CLASSIFICATION_TYPE":"U","MEAN_MOTION":15.20216409,"ECCENTRICITY":0.00026288,"INCLINATION":97.4218,"RA_OF_ASC_NODE":274.2201,"ARG_OF_PERICENTER":239.4701,"MEAN_ANOMALY":120.6275,"EPHEMERIS_TYPE":0,"NORAD_CAT_ID":66727,"ELEMENT_SET_NO":999,"REV_AT_EPOCH":3542,"BSTAR":0.00016970001,"MEAN_MOTION_DOT":0.0000361,"MEAN_MOTION_DDOT":0},{"OBJECT_NAME":"FLOCK 4H-25","OBJECT_ID":"2025-276BQ","EPOCH":"2026-07-20T03:04:32.508192","CLASSIFICATION_TYPE":"U","MEAN_MOTION":15.20982094,"ECCENTRICITY":0.00020574,"INCLINATION":97.4176,"RA_OF_ASC_NODE":274.389,"ARG_OF_PERICENTER":123.494,"MEAN_ANOMALY":236.6492,"EPHEMERIS_TYPE":0,"NORAD_CAT_ID":66728,"ELEMENT_SET_NO":999,"REV_AT_EPOCH":3472,"BSTAR":0.00015919501,"MEAN_MOTION_DOT":0.00003459,"MEAN_MOTION_DDOT":0},{"OBJECT_NAME":"FLOCK 4H-26","OBJECT_ID":"2025-276BR","EPOCH":"2026-07-19T18:26:49.959456","CLASSIFICATION_TYPE":"U","MEAN_MOTION":15.19935006,"ECCENTRICITY":0.00034329,"INCLINATION":97.4174,"RA_OF_ASC_NODE":273.6424,"ARG_OF_PERICENTER":242.1164,"MEAN_ANOMALY":117.9724,"EPHEMERIS_TYPE":0,"NORAD_CAT_ID":66729,"ELEMENT_SET_NO":999,"REV_AT_EPOCH":3536,"BSTAR":0.00015473864,"MEAN_MOTION_DOT":0.00003258,"MEAN_MOTION_DDOT":0},{"OBJECT_NAME":"FLOCK 4H-27","OBJECT_ID":"2025-276BS","EPOCH":"2026-07-19T18:20:58.259616","CLASSIFICATION_TYPE":"U","MEAN_MOTION":15.20800788,"ECCENTRICITY":0.00017692,"INCLINATION":97.4153,"RA_OF_ASC_NODE":273.8813,"ARG_OF_PERICENTER":125.3553,"MEAN_ANOMALY":234.7848,"EPHEMERIS_TYPE":0,"NORAD_CAT_ID":66730,"ELEMENT_SET_NO":999,"REV_AT_EPOCH":3538,"BSTAR":0.00015171215,"MEAN_MOTION_DOT":0.00003276,"MEAN_MOTION_DDOT":0},{"OBJECT_NAME":"FLOCK 4H-29","OBJECT_ID":"2025-276BU","EPOCH":"2026-07-20T03:25:30.226944","CLASSIFICATION_TYPE":"U","MEAN_MOTION":15.20079432,"ECCENTRICITY":0.00018357,"INCLINATION":97.4153,"RA_OF_ASC_NODE":273.9921,"ARG_OF_PERICENTER":249.5513,"MEAN_ANOMALY":110.5525,"EPHEMERIS_TYPE":0,"NORAD_CAT_ID":66732,"ELEMENT_SET_NO":999,"REV_AT_EPOCH":3542,"BSTAR":0.00018235065,"MEAN_MOTION_DOT":0.00003868,"MEAN_MOTION_DDOT":0},{"OBJECT_NAME":"FLOCK 4H-30","OBJECT_ID":"2025-276BV","EPOCH":"2026-07-20T03:13:15.987648","CLASSIFICATION_TYPE":"U","MEAN_MOTION":15.20203907,"ECCENTRICITY":0.00029021,"INCLINATION":97.4214,"RA_OF_ASC_NODE":274.1959,"ARG_OF_PERICENTER":239.7416,"MEAN_ANOMALY":120.3532,"EPHEMERIS_TYPE":0,"NORAD_CAT_ID":66733,"ELEMENT_SET_NO":999,"REV_AT_EPOCH":3542,"BSTAR":0.00018802362,"MEAN_MOTION_DOT":0.00004005,"MEAN_MOTION_DDOT":0},{"OBJECT_NAME":"FLOCK 4H-31","OBJECT_ID":"2025-276BW","EPOCH":"2026-07-20T03:44:31.861248","CLASSIFICATION_TYPE":"U","MEAN_MOTION":15.19974871,"ECCENTRICITY":0.00022467,"INCLINATION":97.4153,"RA_OF_ASC_NODE":273.9714,"ARG_OF_PERICENTER":247.3905,"MEAN_ANOMALY":112.7092,"EPHEMERIS_TYPE":0,"NORAD_CAT_ID":66734,"ELEMENT_SET_NO":999,"REV_AT_EPOCH":3542,"BSTAR":0.0001604453,"MEAN_MOTION_DOT":0.00003385,"MEAN_MOTION_DDOT":0},{"OBJECT_NAME":"FLOCK 4H-32","OBJECT_ID":"2025-276BX","EPOCH":"2026-07-20T03:26:33.300672","CLASSIFICATION_TYPE":"U","MEAN_MOTION":15.20095343,"ECCENTRICITY":0.00032968,"INCLINATION":97.421,"RA_OF_ASC_NODE":274.1599,"ARG_OF_PERICENTER":237.0971,"MEAN_ANOMALY":122.9947,"EPHEMERIS_TYPE":0,"NORAD_CAT_ID":66735,"ELEMENT_SET_NO":999,"REV_AT_EPOCH":3542,"BSTAR":0.00016741802,"MEAN_MOTION_DOT":0.00003548,"MEAN_MOTION_DDOT":0},{"OBJECT_NAME":"FLOCK 4H-33","OBJECT_ID":"2025-276BY","EPOCH":"2026-07-20T03:55:46.346304","CLASSIFICATION_TYPE":"U","MEAN_MOTION":15.21223529,"ECCENTRICITY":0.00031106,"INCLINATION":97.4207,"RA_OF_ASC_NODE":274.5812,"ARG_OF_PERICENTER":149.8384,"MEAN_ANOMALY":210.3032,"EPHEMERIS_TYPE":0,"NORAD_CAT_ID":66736,"ELEMENT_SET_NO":999,"REV_AT_EPOCH":3545,"BSTAR":0.00016128818,"MEAN_MOTION_DOT":0.00003531,"MEAN_MOTION_DDOT":0}]}
