FLOCK 4H-16             
1 66719U 25276BF  26201.13911386  .00003692  00000+0  17364-3 0  9997
2 66719  97.4219 274.1990 0003105 230.5473 129.5487 15.20185329 35424
FLOCK 4H-18             
1 66721U 25276BH  26201.14547000  .00003958  00000+0  18623-3 0  9993
2 66721  97.4161 274.0148 0002241 261.5335  98.5646 15.20128277 35429
FLOCK 4H-19             
1 66722U 25276BJ  26201.14087306  .00003035  00000+0  13874-3 0  9991
2 66722  97.4162 274.4816 0002724 140.8016 219.3418 15.21314119 34745
FLOCK 4H-20             
1 66723U 25276BK  26201.14248834  .00003395  00000+0  15407-3 0  9990
2 66723  97.4200 274.5929 0003349 157.8477 202.2905 15.21479738 34705
FLOCK 4H-21             
1 66724U 25276BL  26201.10941166  .00003366  00000+0  15463-3 0  9995
2 66724  97.4164 274.3787 0003160 156.4336 203.7045 15.21063204 34691
FLOCK 4H-22             
1 66725U 25276BM  26201.15559872  .00004065  00000+0  18883-3 0  9996
2 66725  97.4155 274.1308 0001077 250.6571 109.4548 15.20560923 35434
FLOCK 4H-23             
1 66726U 25276BN  26201.14487854  .00003825  00000+0  18022-3 0  9994
2 66726  97.4224 274.2059 0003395 220.2478 139.8506 15.20105973 35420
FLOCK 4H-24             
1 66727U 25276BP  26201.12930658  .00003610  00000+0  16970-3 0  9990
2 66727  97.4218 274.2201 0002628 239.4701 120.6275 15.20216409 35420
FLOCK 4H-25             
1 66728U 25276BQ  26201.12815403  .00003459  00000+0  15920-3 0  9996
2 66728  97.4176 274.3890 0002057 123.4940 236.6492 15.20982094 34723
FLOCK 4H-26             
1 66729U 25276BR  26200.76863379  .00003258  00000+0  15474-3 0  9992
2 66729  97.4174 273.6424 0003432 242.1164 117.9724 15.19935006 35361
FLOCK 4H-27             
1 66730U 25276BS  26200.76456319  .00003276  00000+0  15171-3 0  9990
2 66730  97.4153 273.8813 0001769 125.3553 234.7848 15.20800788 35386
FLOCK 4H-29             
1 66732U 25276BU  26201.14271096  .00003868  00000+0  18235-3 0  9993
2 66732  97.4153 273.9921 0001835 249.5513 110.5525 15.20079432 35420
FLOCK 4H-30             
1 66733U 25276BV  26201.13421282  .00004005  00000+0  18802-3 0  9991
2 66733  97.4214 274.1959 0002902 239.7416 120.3532 15.20203907 35425
FLOCK 4H-31             
1 66734U 25276BW  26201.15592432  .00003385  00000+0  16045-3 0  9997
2 66734  97.4153 273.9714 0002246 247.3905 112.7092 15.19974871 35422
FLOCK 4H-32             
1 66735U 25276BX  26201.14344098  .00003548  00000+0  16742-3 0  9995
2 66735  97.4210 274.1599 0003296 237.0971 122.9947 15.20095343 35428
FLOCK 4H-33             
1 66736U 25276BY  26201.16373086  .00003531  00000+0  16129-3 0  9998
2 66736  97.4207 274.5812 0003110 149.8384 210.3032 15.21223529 35450
